IRIDIUM 36 [-]          
1 24967U 97056C   24078.86366767  .00000625  00000+0  20566-3 0  9999
2 24967  86.4029   4.1962 0002330  83.4292 276.7170 14.36678983386829
IRIDIUM 39 [-]          
1 25042U 97069D   24078.88913265  .00001039  00000+0  27515-3 0  9992
2 25042  86.3915  46.1733 0019575  31.9179 328.3205 14.47756680383058
IRIDIUM 38 [-]          
1 25043U 97069E   24079.03859441  .00000655  00000+0  21411-3 0  9998
2 25043  86.3920  64.5298 0003504 116.6604 243.4953 14.37115180380826
IRIDIUM 42 [-]          
1 25077U 97077A   24078.91533192  .00000594  00000+0  20020-3 0  9999
2 25077  86.3915  70.1992 0002489 104.1648 255.9825 14.35426920375861
IRIDIUM 44 [-]          
1 25078U 97077B   24078.90738545  .00000703  00000+0  22027-3 0  9999
2 25078  86.3939  53.3395 0004119  86.3221 273.8449 14.39251264378199
IRIDIUM 45 [-]          
1 25104U 97082A   24079.00636880  .00016310  00000+0  97424-3 0  9990
2 25104  86.3707 264.4987 0166996 206.4756 152.7876 14.99933553383575
IRIDIUM 24 [-]          
1 25105U 97082B   24079.03722525  .00000561  00000+0  16830-3 0  9999
2 25105  86.3854 273.0473 0012912 133.7638 226.4633 14.41020443377894
IRIDIUM 51 [-]          
1 25262U 98018A   24078.89732963  .00018309  00000+0  91082-3 0  9994
2 25262  86.3869 274.6368 0153747 154.0506 206.8547 15.07630531377799
